SILVERSAT               
1 66909U 98067XV  26042.70038587  .00137849  00000+0  14215-2 0  9998
2 66909  51.6264 197.1110 0002523 274.1167  85.9539 15.63847385 11119
ISS OBJECT XW           
1 66910U 98067XW  26042.46281613  .00120044  00000+0  13239-2 0  9997
2 66910  51.6249 198.5199 0001518 308.9215  51.1644 15.62201503 11071
ISS OBJECT XX           
1 66911U 98067XX  26042.73193591  .00158320  00000+0  15415-2 0  9991
2 66911  51.6241 196.5617 0003214 300.5520  59.5158 15.65220206 11110
ISS OBJECT XY           
1 66912U 98067XY  26042.72297530  .00080190  00000+0  99849-3 0  9992
2 66912  51.6279 198.0151 0000330 250.4462 109.6495 15.59222164 11092
ISS OBJECT XZ           
1 67683U 98067XZ  26042.88614733  .00038506  00000+0  68442-3 0  9992
2 67683  51.6304 199.8510 0010786 103.0439 257.1755 15.49733189   783
GXIBA-1                 
1 67684U 98067YA  26042.94846777  .00073449  00000+0  12609-2 0  9993
2 67684  51.6302 199.5178 0012672  97.8195 262.4233 15.50407338   791
CORAL                   
1 67685U 98067YB  26042.95016899  .00043336  00000+0  76454-3 0  9990
2 67685  51.6304 199.5288 0012734  98.7560 261.4871 15.49865233   798
ISS OBJECT YC           
1 67686U 98067YC  26042.88534617  .00050652  00000+0  88930-3 0  9997
2 67686  51.6308 199.8467 0007807  74.6465 285.5386 15.49988026   780
LEOPARD                 
1 67687U 98067YD  26043.01483962  .00043003  00000+0  76135-3 0  9996
2 67687  51.6308 199.2109 0007867  76.3613 283.8251 15.49822508   726
ISS OBJECT YE           
1 67688U 98067YE  26042.94992392  .00048681  00000+0  85662-3 0  9992
2 67688  51.6310 199.5278 0007759  75.0285 285.1562 15.49941977   712
