CCSDS_OMM_VERS = 2.0
CREATION_DATE  = 
ORIGINATOR     = 

OBJECT_NAME    = SILVERSAT
OBJECT_ID      = 1998-067XV
CENTER_NAME    = EARTH
REF_FRAME      = TEME
TIME_SYSTEM    = UTC
MEAN_ELEMENT_THEORY = SGP/SGP4

EPOCH          = 2026-02-11T16:48:33.339168
MEAN_MOTION    = 15.63847385
ECCENTRICITY   = .00025233
INCLINATION    = 51.6264
RA_OF_ASC_NODE = 197.1110
ARG_OF_PERICENTER = 274.1167
MEAN_ANOMALY   = 85.9539

EPHEMERIS_TYPE = 0
CLASSIFICATION_TYPE = U
NORAD_CAT_ID   = 66909
ELEMENT_SET_NO = 999
REV_AT_EPOCH   = 1111
BSTAR          = .14215208E-2
MEAN_MOTION_DOT = .137849E-2
MEAN_MOTION_DDOT = 0

CCSDS_OMM_VERS = 2.0
CREATION_DATE  = 
ORIGINATOR     = 

OBJECT_NAME    = ISS OBJECT XW
OBJECT_ID      = 1998-067XW
CENTER_NAME    = EARTH
REF_FRAME      = TEME
TIME_SYSTEM    = UTC
MEAN_ELEMENT_THEORY = SGP/SGP4

EPOCH          = 2026-02-11T11:06:27.313632
MEAN_MOTION    = 15.62201503
ECCENTRICITY   = .00015189
INCLINATION    = 51.6249
RA_OF_ASC_NODE = 198.5199
ARG_OF_PERICENTER = 308.9215
MEAN_ANOMALY   = 51.1644

EPHEMERIS_TYPE = 0
CLASSIFICATION_TYPE = U
NORAD_CAT_ID   = 66910
ELEMENT_SET_NO = 999
REV_AT_EPOCH   = 1107
BSTAR          = .13239129E-2
MEAN_MOTION_DOT = .120044E-2
MEAN_MOTION_DDOT = 0

CCSDS_OMM_VERS = 2.0
CREATION_DATE  = 
ORIGINATOR     = 

OBJECT_NAME    = ISS OBJECT XX
OBJECT_ID      = 1998-067XX
CENTER_NAME    = EARTH
REF_FRAME      = TEME
TIME_SYSTEM    = UTC
MEAN_ELEMENT_THEORY = SGP/SGP4

EPOCH          = 2026-02-11T17:33:59.262624
MEAN_MOTION    = 15.65220206
ECCENTRICITY   = .00032148
INCLINATION    = 51.6241
RA_OF_ASC_NODE = 196.5617
ARG_OF_PERICENTER = 300.5520
MEAN_ANOMALY   = 59.5158

EPHEMERIS_TYPE = 0
CLASSIFICATION_TYPE = U
NORAD_CAT_ID   = 66911
ELEMENT_SET_NO = 999
REV_AT_EPOCH   = 1111
BSTAR          = .15414788E-2
MEAN_MOTION_DOT = .15832E-2
MEAN_MOTION_DDOT = 0

CCSDS_OMM_VERS = 2.0
CREATION_DATE  = 
ORIGINATOR     = 

OBJECT_NAME    = ISS OBJECT XY
OBJECT_ID      = 1998-067XY
CENTER_NAME    = EARTH
REF_FRAME      = TEME
TIME_SYSTEM    = UTC
MEAN_ELEMENT_THEORY = SGP/SGP4

EPOCH          = 2026-02-11T17:21:05.065920
MEAN_MOTION    = 15.59222164
ECCENTRICITY   = .00003309
INCLINATION    = 51.6279
RA_OF_ASC_NODE = 198.0151
ARG_OF_PERICENTER = 250.4462
MEAN_ANOMALY   = 109.6495

EPHEMERIS_TYPE = 0
CLASSIFICATION_TYPE = U
NORAD_CAT_ID   = 66912
ELEMENT_SET_NO = 999
REV_AT_EPOCH   = 1109
BSTAR          = .99849107E-3
MEAN_MOTION_DOT = .8019E-3
MEAN_MOTION_DDOT = 0

CCSDS_OMM_VERS = 2.0
CREATION_DATE  = 
ORIGINATOR     = 

OBJECT_NAME    = ISS OBJECT XZ
OBJECT_ID      = 1998-067XZ
CENTER_NAME    = EARTH
REF_FRAME      = TEME
TIME_SYSTEM    = UTC
MEAN_ELEMENT_THEORY = SGP/SGP4

EPOCH          = 2026-02-11T21:16:03.129312
MEAN_MOTION    = 15.49733189
ECCENTRICITY   = .0010786
INCLINATION    = 51.6304
RA_OF_ASC_NODE = 199.8510
ARG_OF_PERICENTER = 103.0439
MEAN_ANOMALY   = 257.1755

EPHEMERIS_TYPE = 0
CLASSIFICATION_TYPE = U
NORAD_CAT_ID   = 67683
ELEMENT_SET_NO = 999
REV_AT_EPOCH   = 78
BSTAR          = .68442E-3
MEAN_MOTION_DOT = .38506E-3
MEAN_MOTION_DDOT = 0

CCSDS_OMM_VERS = 2.0
CREATION_DATE  = 
ORIGINATOR     = 

OBJECT_NAME    = GXIBA-1
OBJECT_ID      = 1998-067YA
CENTER_NAME    = EARTH
REF_FRAME      = TEME
TIME_SYSTEM    = UTC
MEAN_ELEMENT_THEORY = SGP/SGP4

EPOCH          = 2026-02-11T22:45:47.615328
MEAN_MOTION    = 15.50407338
ECCENTRICITY   = .0012672
INCLINATION    = 51.6302
RA_OF_ASC_NODE = 199.5178
ARG_OF_PERICENTER = 97.8195
MEAN_ANOMALY   = 262.4233

EPHEMERIS_TYPE = 0
CLASSIFICATION_TYPE = U
NORAD_CAT_ID   = 67684
ELEMENT_SET_NO = 999
REV_AT_EPOCH   = 79
BSTAR          = .12609E-2
MEAN_MOTION_DOT = .73449E-3
MEAN_MOTION_DDOT = 0

CCSDS_OMM_VERS = 2.0
CREATION_DATE  = 
ORIGINATOR     = 

OBJECT_NAME    = CORAL
OBJECT_ID      = 1998-067YB
CENTER_NAME    = EARTH
REF_FRAME      = TEME
TIME_SYSTEM    = UTC
MEAN_ELEMENT_THEORY = SGP/SGP4

EPOCH          = 2026-02-11T22:48:14.600736
MEAN_MOTION    = 15.49865233
ECCENTRICITY   = .0012734
INCLINATION    = 51.6304
RA_OF_ASC_NODE = 199.5288
ARG_OF_PERICENTER = 98.7560
MEAN_ANOMALY   = 261.4871

EPHEMERIS_TYPE = 0
CLASSIFICATION_TYPE = U
NORAD_CAT_ID   = 67685
ELEMENT_SET_NO = 999
REV_AT_EPOCH   = 79
BSTAR          = .76454E-3
MEAN_MOTION_DOT = .43336E-3
MEAN_MOTION_DDOT = 0

CCSDS_OMM_VERS = 2.0
CREATION_DATE  = 
ORIGINATOR     = 

OBJECT_NAME    = ISS OBJECT YC
OBJECT_ID      = 1998-067YC
CENTER_NAME    = EARTH
REF_FRAME      = TEME
TIME_SYSTEM    = UTC
MEAN_ELEMENT_THEORY = SGP/SGP4

EPOCH          = 2026-02-11T21:14:53.909088
MEAN_MOTION    = 15.49988026
ECCENTRICITY   = .0007807
INCLINATION    = 51.6308
RA_OF_ASC_NODE = 199.8467
ARG_OF_PERICENTER = 74.6465
MEAN_ANOMALY   = 285.5386

EPHEMERIS_TYPE = 0
CLASSIFICATION_TYPE = U
NORAD_CAT_ID   = 67686
ELEMENT_SET_NO = 999
REV_AT_EPOCH   = 78
BSTAR          = .8893E-3
MEAN_MOTION_DOT = .50652E-3
MEAN_MOTION_DDOT = 0

CCSDS_OMM_VERS = 2.0
CREATION_DATE  = 
ORIGINATOR     = 

OBJECT_NAME    = LEOPARD
OBJECT_ID      = 1998-067YD
CENTER_NAME    = EARTH
REF_FRAME      = TEME
TIME_SYSTEM    = UTC
MEAN_ELEMENT_THEORY = SGP/SGP4

EPOCH          = 2026-02-12T00:21:22.143168
MEAN_MOTION    = 15.49822508
ECCENTRICITY   = .0007867
INCLINATION    = 51.6308
RA_OF_ASC_NODE = 199.2109
ARG_OF_PERICENTER = 76.3613
MEAN_ANOMALY   = 283.8251

EPHEMERIS_TYPE = 0
CLASSIFICATION_TYPE = U
NORAD_CAT_ID   = 67687
ELEMENT_SET_NO = 999
REV_AT_EPOCH   = 72
BSTAR          = .76135E-3
MEAN_MOTION_DOT = .43003E-3
MEAN_MOTION_DDOT = 0

CCSDS_OMM_VERS = 2.0
CREATION_DATE  = 
ORIGINATOR     = 

OBJECT_NAME    = ISS OBJECT YE
OBJECT_ID      = 1998-067YE
CENTER_NAME    = EARTH
REF_FRAME      = TEME
TIME_SYSTEM    = UTC
MEAN_ELEMENT_THEORY = SGP/SGP4

EPOCH          = 2026-02-11T22:47:53.426688
MEAN_MOTION    = 15.49941977
ECCENTRICITY   = .0007759
INCLINATION    = 51.6310
RA_OF_ASC_NODE = 199.5278
ARG_OF_PERICENTER = 75.0285
MEAN_ANOMALY   = 285.1562

EPHEMERIS_TYPE = 0
CLASSIFICATION_TYPE = U
NORAD_CAT_ID   = 67688
ELEMENT_SET_NO = 999
REV_AT_EPOCH   = 71
BSTAR          = .85662E-3
MEAN_MOTION_DOT = .48681E-3
MEAN_MOTION_DDOT = 0

